NORAD_CAT_ID,OBJECT_NAME,OBJECT_TYPE,EPOCH,MEAN_MOTION,ECCENTRICITY,INCLINATION,RA_OF_ASC_NODE,ARG_OF_PERICENTER,MEAN_ANOMALY,BSTAR,MEAN_MOTION_DOT,MEAN_MOTION_DDOT,TLE_LINE0,TLE_LINE1,TLE_LINE2,SEMIMAJOR_AXIS,PERIOD,APOGEE,PERIGEE,DECAYED
53837.0,STARLINK-4776,PAYLOAD,2024-05-02 15:08:57,15.08834578,0.0001541,53.2187,98.7735,104.0661,256.0503,1.3114e-06,-2.67e-06,0.0,0 STARLINK-4776,1 53837U 22114V   24123.63122371 -.00000267  00000-0  13114-5 0  9994,2 53837  53.2187  98.7735 0001541 104.0661 256.0503 15.08834578 90236,6917.897,95.438,540.828,538.696,0.0
53837.0,STARLINK-4776,PAYLOAD,2024-05-03 05:27:25,15.08845153,0.0001363,53.2171,96.0958,101.8919,258.2226,8.1084e-05,1.003e-05,0.0,0 STARLINK-4776,1 53837U 22114V   24124.22737474  .00001003  00000-0  81084-4 0  9994,2 53837  53.2171  96.0958 0001363 101.8919 258.2226 15.08845153 90327,6917.865,95.437,540.673,538.787,0.0
53837.0,STARLINK-4776,PAYLOAD,2024-05-03 08:38:11,15.0884693,0.0001378,53.2171,95.501,101.237,258.8777,9.7666e-05,1.267e-05,0.0,0 STARLINK-4776,1 53837U 22114V   24124.35985293  .00001267  00000-0  97666-4 0  9997,2 53837  53.2171  95.5010 0001378 101.2370 258.8777 15.08846930 90883,6917.859,95.437,540.677,538.771,0.0
53837.0,STARLINK-4776,PAYLOAD,2024-05-03 14:59:43,15.08853035,0.0001361,53.2168,94.3118,88.787,271.3278,0.00010464,1.378e-05,0.0,0 STARLINK-4776,1 53837U 22114V   24124.62480769  .00001378  00000-0  10464-3 0  9998,2 53837  53.2168  94.3118 0001361  88.7870 271.3278 15.08853035 90386,6917.841,95.437,540.647,538.764,0.0
53837.0,STARLINK-4776,PAYLOAD,2024-05-04 05:18:13,15.088242,0.000133,53.2171,91.6351,95.7631,264.3513,-2.1223e-05,-6.25e-06,0.0,0 STARLINK-4776,1 53837U 22114V   24125.22099407 -.00000625  00000-0 -21223-4 0  9992,2 53837  53.2171  91.6351 0001330  95.7631 264.3513 15.08824200 90474,6917.929,95.439,540.714,538.874,0.0
53837.0,STARLINK-4776,PAYLOAD,2024-05-04 14:50:32,15.08832871,0.0001324,53.2171,89.8511,95.2051,264.9092,3.4093e-05,2.55e-06,0.0,0 STARLINK-4776,1 53837U 22114V   24125.61843048  .00000255  00000-0  34093-4 0  9999,2 53837  53.2171  89.8511 0001324  95.2051 264.9092 15.08832871 90533,6917.902,95.438,540.683,538.851,0.0
53837.0,STARLINK-4776,PAYLOAD,2024-05-05 05:08:59,15.08848243,0.0001301,53.2172,87.1742,95.2137,264.9004,7.3958e-05,8.9e-06,0.0,0 STARLINK-4776,1 53837U 22114V   24126.21458216  .00000890  00000-0  73958-4 0  9993,2 53837  53.2172  87.1742 0001301  95.2137 264.9004 15.08848243 90624,6917.855,95.437,540.62,538.82,0.0
53837.0,STARLINK-4776,PAYLOAD,2024-05-05 06:44:22,15.0885043,0.0001299,53.2172,86.8767,95.172,264.9421,0.00010106,1.321e-05,0.0,0 STARLINK-4776,1 53837U 22114V   24126.28082054  .00001321  00000-0  10106-3 0  9998,2 53837  53.2172  86.8767 0001299  95.1720 264.9421 15.08850430 91175,6917.849,95.437,540.612,538.815,0.0
53837.0,STARLINK-4776,PAYLOAD,2024-05-06 03:24:24,15.08844266,0.0001347,53.2166,83.0105,86.9144,273.2002,0.00036258,5.488e-05,0.0,0 STARLINK-4776,1 53837U 22114V   24127.14194598  .00005488  00000-0  36258-3 0  9995,2 53837  53.2166  83.0105 0001347  86.9144 273.2002 15.08844266 90767,6917.867,95.437,540.664,538.801,0.0
53837.0,STARLINK-4776,PAYLOAD,2024-05-06 14:32:05,15.0885734,0.0001364,53.2171,80.9291,86.5367,273.5781,0.00041244,6.285e-05,0.0,0 STARLINK-4776,1 53837U 22114V   24127.60561869  .00006285  00000-0  41244-3 0  9992,2 53837  53.2171  80.9291 0001364  86.5367 273.5781 15.08857340 91379,6917.827,95.436,540.636,538.749,0.0
53837.0,STARLINK-4776,PAYLOAD,2024-05-06 20:53:38,15.08850458,0.000184,53.216,79.7393,93.9515,266.1688,0.00019784,2.863e-05,0.0,0 STARLINK-4776,1 53837U 22114V   24127.87058074  .00002863  00000-0  19784-3 0  9992,2 53837  53.2160  79.7393 0001840  93.9515 266.1688 15.08850458 91414,6917.848,95.437,540.986,538.441,0.0
53837.0,STARLINK-4776,PAYLOAD,2024-05-07 06:25:56,15.0884817,0.0001611,53.2186,77.9548,97.5093,262.6082,5.4721e-05,5.83e-06,0.0,0 STARLINK-4776,1 53837U 22114V   24128.26802033  .00000583  00000-0  54721-4 0  9996,2 53837  53.2186  77.9548 0001611  97.5093 262.6082 15.08848170 90934,6917.855,95.437,540.835,538.606,0.0
53837.0,STARLINK-4776,PAYLOAD,2024-05-08 03:05:58,15.08838031,0.0001545,53.2173,74.0892,92.3531,267.7638,-3.3666e-05,-8.24e-06,0.0,0 STARLINK-4776,1 53837U 22114V   24129.12914669 -.00000824  00000-0 -33666-4 0  9996,2 53837  53.2173  74.0892 0001545  92.3531 267.7638 15.08838031 91069,6917.886,95.438,540.82,538.683,0.0
53837.0,STARLINK-4776,PAYLOAD,2024-05-09 12:29:03,15.08851764,0.0001372,53.219,67.845,89.4159,270.699,0.00013057,1.791e-05,0.0,0 STARLINK-4776,1 53837U 22114V   24130.52017734  .00001791  00000-0  13057-3 0  9992,2 53837  53.2190  67.8450 0001372  89.4159 270.6990 15.08851764 91274,6917.844,95.437,540.659,538.76,0.0
53837.0,STARLINK-4776,PAYLOAD,2024-05-10 02:47:32,15.08833687,0.0001443,53.2195,65.1747,110.4257,249.6891,0.00013192,1.812e-05,0.0,0 STARLINK-4776,1 53837U 22114V   24131.11635233  .00001812  00000-0  13192-3 0  9992,2 53837  53.2195  65.1747 0001443 110.4257 249.6891 15.08833687 91362,6917.9,95.438,540.763,538.766,0.0
53837.0,STARLINK-4776,PAYLOAD,2024-05-10 12:19:50,15.08851537,0.0001037,53.2178,63.3835,83.302,276.809,0.00024576,3.627e-05,0.0,0 STARLINK-4776,1 53837U 22114V   24131.51377950  .00003627  00000-0  24576-3 0  9999,2 53837  53.2178  63.3835 0001037  83.3020 276.8090 15.08851537 91420,6917.845,95.437,540.428,538.993,0.0
53837.0,STARLINK-4776,PAYLOAD,2024-05-10 20:16:47,15.08830802,0.0001318,53.2188,61.8996,100.9146,259.1994,-0.00013801,-2.483e-05,0.0,0 STARLINK-4776,1 53837U 22114V   24131.84499379 -.00002483  00000-0 -13801-3 0  9995,2 53837  53.2188  61.8996 0001318 100.9146 259.1994 15.08830802 91473,6917.909,95.438,540.685,538.862,0.0
53837.0,STARLINK-4776,PAYLOAD,2024-05-11 04:13:41,15.08867108,0.0001422,53.2176,60.4107,127.1308,232.9815,0.0004331,6.617e-05,0.0,0 STARLINK-4776,1 53837U 22114V   24132.17617368  .00006617  00000-0  43310-3 0  9991,2 53837  53.2176  60.4107 0001422 127.1308 232.9815 15.08867108 91522,6917.798,95.436,540.646,538.679,0.0
53837.0,STARLINK-4776,PAYLOAD,2024-05-11 12:10:34,15.08923663,0.0001842,53.2182,58.926,79.6292,280.4907,0.0011307,0.00017794,0.0,0 STARLINK-4776,1 53837U 22114V   24132.50733906  .00017794  00000-0  11307-2 0  9993,2 53837  53.2182  58.9260 0001842  79.6292 280.4907 15.08923663 91574,6917.625,95.432,540.764,538.215,0.0
53837.0,STARLINK-4776,PAYLOAD,2024-05-11 18:32:09,15.08862409,0.0002315,53.2184,57.7417,90.6876,269.4382,0.00021032,3.063e-05,0.0,0 STARLINK-4776,1 53837U 22114V   24132.77232654  .00003063  00000-0  21032-3 0  9997,2 53837  53.2184  57.7417 0002315  90.6876 269.4382 15.08862409 91613,6917.812,95.436,541.278,538.075,0.0
53837.0,STARLINK-4776,PAYLOAD,2024-05-12 04:04:30,15.08781722,0.0001148,53.2174,55.9522,87.5308,272.5815,-0.0013133,-0.00021095,0.0,0 STARLINK-4776,1 53837U 22114V   24133.16979996 -.00021095  00000-0 -13133-2 0  9997,2 53837  53.2174  55.9522 0001148  87.5308 272.5815 15.08781722 91677,6918.059,95.441,540.718,539.129,0.0
53837.0,STARLINK-4776,PAYLOAD,2024-05-12 12:01:27,15.08779629,0.0001053,53.2163,54.4658,105.7604,254.3504,-0.0011206,-0.00018048,0.0,0 STARLINK-4776,1 53837U 22114V   24133.50100906 -.00018048  00000-0 -11206-2 0  9995,2 53837  53.2163  54.4658 0001053 105.7604 254.3504 15.08779629 91728,6918.065,95.441,540.658,539.201,0.0
53837.0,STARLINK-4776,PAYLOAD,2024-05-12 23:09:09,15.08805074,0.0001356,53.2176,52.3847,81.5233,278.5913,-0.00016235,-2.868e-05,0.0,0 STARLINK-4776,1 53837U 22114V   24133.96469347 -.00002868  00000-0 -16235-3 0  9993,2 53837  53.2176  52.3847 0001356  81.5233 278.5913 15.08805074 92338,6917.987,95.44,540.79,538.914,0.0
53837.0,STARLINK-4776,PAYLOAD,2024-05-13 03:55:18,15.08825349,0.0001259,53.2178,51.4911,92.9542,267.1595,0.00043311,6.609e-05,0.0,0 STARLINK-4776,1 53837U 22114V   24134.16341020  .00006609  00000-0  43311-3 0  9993,2 53837  53.2178  51.4911 0001259  92.9542 267.1595 15.08825349 91823,6917.925,95.438,540.661,538.919,0.0
53837.0,STARLINK-4776,PAYLOAD,2024-05-13 11:52:14,15.08835683,0.0001328,53.218,50.006,89.7171,270.3973,0.00083408,0.0001301,0.0,0 STARLINK-4776,1 53837U 22114V   24134.49461326  .00013010  00000-0  83408-3 0  9996,2 53837  53.2180  50.0060 0001328  89.7171 270.3973 15.08835683 92419,6917.894,95.438,540.677,538.84,0.0
53837.0,STARLINK-4776,PAYLOAD,2024-05-13 18:13:47,15.08840687,0.0001208,53.2182,48.816,89.3698,270.7433,0.0011368,0.00017851,0.0,0 STARLINK-4776,1 53837U 22114V   24134.75957478  .00017851  00000-0  11368-2 0  9995,2 53837  53.2182  48.8160 0001208  89.3698 270.7433 15.08840687 92453,6917.878,95.438,540.579,538.908,0.0
53837.0,STARLINK-4776,PAYLOAD,2024-05-14 03:46:05,15.08864459,0.0001205,53.2172,47.032,94.718,265.395,0.0013281,0.00020926,0.0,0 STARLINK-4776,1 53837U 22114V   24135.15700374  .00020926  00000-0  13281-2 0  9994,2 53837  53.2172  47.0320 0001205  94.7180 265.3950 15.08864459 91977,6917.806,95.436,540.504,538.837,0.0
53837.0,STARLINK-4776,PAYLOAD,2024-05-14 11:42:59,15.0887795,0.0001434,53.2167,45.543,89.8063,270.3093,0.00096479,0.00015116,0.0,0 STARLINK-4776,1 53837U 22114V   24135.48819398  .00015116  00000-0  96479-3 0  9993,2 53837  53.2167  45.5430 0001434  89.8063 270.3093 15.08877950 92565,6917.764,95.435,540.621,538.637,0.0
53837.0,STARLINK-4776,PAYLOAD,2024-05-14 22:50:41,15.08854504,0.0001929,53.2186,43.4614,96.673,263.4482,-0.00026153,-4.45e-05,0.0,0 STARLINK-4776,1 53837U 22114V   24135.95187244 -.00004450  00000-0 -26153-3 0  9996,2 53837  53.2186  43.4614 0001929  96.6730 263.4482 15.08854504 92636,6917.836,95.437,541.036,538.367,0.0
53837.0,STARLINK-4776,PAYLOAD,2024-05-15 03:36:51,15.08859787,0.0001585,53.2175,42.5701,87.1244,272.993,5.789e-05,6.34e-06,0.0,0 STARLINK-4776,1 53837U 22114V   24136.15059156  .00000634  00000-0  57890-4 0  9990,2 53837  53.2175  42.5701 0001585  87.1244 272.9930 15.08859787 92129,6917.82,95.436,540.781,538.588,0.0
